SatCatId,ObjectName,LaunchYear,OrbitalPeriod,LaunchMass,StatusCode,Inclination,Status,UcsData,OrbitClassEstimated,LaunchSiteCountry,Owner,UseType,Purpose,LaunchVehicleClass,TLE1,TLE2,MeanMotion,Eccentricity,OrbitClass
11878,COSMOS 1195,1980,115.14,-1.0,UNK,74.02,Inactive,0,LEO,Russia,Russia/USSR,Unknown,Unknown,Unknown,1 11878U 80058D   24173.49039373 -.00000002  00000+0  88100-4 0  9994,2 11878  74.0153 178.1616 0015390 104.9250  12.6635 12.50598953  6631,12.50598953,0.001539,LEO
11879,COSMOS 1196,1980,115.35,-1.0,UNK,74.02,Inactive,0,LEO,Russia,Russia/USSR,Unknown,Unknown,Unknown,1 11879U 80058E   24173.60526024 -.00000001  00000+0  97278-4 0  9997,2 11879  74.0186 266.0576 0005218 236.9526 228.0871 12.48392504481868,12.48392504,0.0005218,LEO
11880,COSMOS 1197,1980,115.57,-1.0,UNK,74.02,Inactive,0,LEO,Russia,Russia/USSR,Unknown,Unknown,Unknown,1 11880U 80058F   24173.59846953 -.00000010  00000+0  39991-4 0  9991,2 11880  74.0192   0.7995 0013095  63.6195 296.6196 12.45994655999175,12.45994655,0.0013095,LEO
11881,COSMOS 1198,1980,115.78,-1.0,UNK,74.02,Inactive,0,LEO,Russia,Russia/USSR,Unknown,Unknown,Unknown,1 11881U 80058G   24173.26066654 -.00000015  00000+0  56219-5 0  9996,2 11881  74.0185  88.8120 0022349 197.4443 332.0823 12.43777076995586,12.43777076,0.0022349,LEO
11882,COSMOS 1199,1980,116.02,-1.0,UNK,74.02,Inactive,0,LEO,Russia,Russia/USSR,Unknown,Unknown,Unknown,1 11882U 80058H   24173.52836235  .00000000  00000+0  11239-3 0  9990,2 11882  74.0155 190.4454 0037075 306.0000 170.2048 12.41190540991437,12.4119054,0.0037075,LEO
3691,OPS 0757 (TACSAT),1969,1434.08,-1.0,-,1.01,Inactive,0,GSO,USA,USA,Unknown,Unknown,Titan,1 03691U 69013A   24173.51308579 -.00000218  00000+0  00000+0 0  9993,2 03691   1.0154  73.3347 0017414 160.4015 183.9715  1.00412652106814,1.00412652,0.0017414,GSO
20083,RADUGA-1 1,1989,1458.85,-1.0,-,13.48,Inactive,0,GSO,Kazakhstan,Russia/USSR,Unknown,Unknown,Unknown,1 20083U 89048A   24173.43267454 -.00000054  00000+0  00000+0 0  9992,2 20083  13.4833 340.1419 0022254 134.8936 229.5759  0.98707804124119,0.98707804,0.0022254,GSO
11896,MOLNIYA 3-13,1980,717.93,-1.0,UNK,63.34,Inactive,0,MEO,Russia,Russia/USSR,Unknown,Unknown,Unknown,1 11896U 80063A   24173.65593332 -.00000171  00000+0  00000+0 0  9993,2 11896  63.3434  34.9619 7326366 278.1911  11.9132  2.00577176321899,2.00577176,0.7326366,MEO
20103,NADEZHDA 1,1989,104.75,-1.0,-,82.96,Inactive,0,LEO,Russia,Russia/USSR,Unknown,Unknown,Unknown,1 20103U 89050A   24173.38970876  .00000067  00000+0  54113-4 0  9993,2 20103  82.9607 117.5914 0036906 334.9307 141.1807 13.74732546753729,13.74732546,0.0036906,LEO
20107,GORIZONT 18,1989,1448.72,-1.0,-,13.17,Inactive,0,GSO,Kazakhstan,Russia/USSR,Unknown,Unknown,Unknown,1 20107U 89052A   24173.49872705  .00000029  00000+0  00000+0 0  9992,2 20107  13.1643 339.4185 0033596 331.8018  28.9137  0.99397875127202,0.99397875,0.0033596,GSO
20122,OLYMPUS,1989,1420.55,-1.0,-,13.01,Inactive,0,GSO,French Guiana,ESA,Unknown,Unknown,Unknown,1 20122U 89053A   24173.06321581 -.00000033  00000+0  00000+0 0  9990,2 20122  13.0121 339.3317 0008441 340.6532 191.7472  1.01369405113506,1.01369405,0.0008441,GSO
3764,ESSA 9 (TOS-G),1969,115.21,-1.0,-,101.42,Inactive,0,LEO,USA,USA,Unknown,Unknown,Unknown,1 03764U 69016A   24173.57484919 -.00000042  00000+0  67863-6 0  9998,2 03764 101.4170 195.3119 0051578  83.3262  37.6099 12.49848801897176,12.49848801,0.0051578,LEO
20149,COSMOS 2034,1989,104.84,-1.0,UNK,82.94,Inactive,0,LEO,Russia,Russia/USSR,Unknown,Unknown,Unknown,1 20149U 89059A   24173.58125888  .00000095  00000+0  85408-4 0  9991,2 20149  82.9413  31.2269 0032712 103.7244 314.6080 13.73587013749497,13.73587013,0.0032712,LEO
11962,METEOR 2-6,1980,102.06,-1.0,UNK,81.22,Inactive,0,LEO,Russia,Russia/USSR,Unknown,Unknown,Unknown,1 11962U 80073A   24173.24191485  .00000053  00000+0  22122-4 0  9998,2 11962  81.2230  79.3754 0036874  36.8155 323.5537 14.10879544252356,14.10879544,0.0036874,LEO
11964,GOES 4,1980,1451.16,-1.0,-,9.57,Inactive,0,GSO,USA,USA,Unknown,Unknown,Unknown,1 11964U 80074A   24173.58199911 -.00000195  00000+0  00000+0 0  9994,2 11964   9.5661 308.6282 0032711  95.0610 191.5102  0.99230223120422,0.99230223,0.0032711,GSO
28352,COSMOS 2406,2004,101.99,-1.0,UNK,71.0,Inactive,0,LEO,Kazakhstan,Russia/USSR,Unknown,Unknown,Unknown,1 28352U 04021A   24173.44822699 -.00000066  00000+0 -10228-4 0  9998,2 28352  70.9983 175.9496 0012180 183.0014 177.1036 14.11917270 32269,14.1191727,0.001218,LEO
20168,TVSAT 2,1989,1442.27,-1.0,UNK,14.71,Inactive,0,GSO,French Guiana,Germany,Unknown,Unknown,Unknown,1 20168U 89062A   24173.56752125  .00000054  00000+0  00000+0 0  9999,2 20168  14.7089   1.2734 0008878 149.4445 199.8388  0.99843023127258,0.99843023,0.0008878,GSO
20169,HIPPARCOS,1989,636.32,-1.0,-,6.65,Inactive,0,MEO,French Guiana,ESA,Unknown,Unknown,Unknown,1 20169U 89062B   24173.04304574  .00000001  00000+0 -77298-5 0  9996,2 20169   6.6473 242.4567 7179319 147.9675 289.8591  2.26300108252904,2.26300108,0.7179319,MEO
52939,POEM,2022,95.32,-1.0,UNK,9.95,Inactive,0,LEO,India,India,Unknown,Unknown,PSLV,1 52939U 22072E   24173.18479697  .00006300  00000+0  31633-3 0  9996,2 52939   9.9516 138.7061 0032208 306.3853  53.3393 15.10691457109004,15.10691457,0.0032208,LEO
7266,COSMOS 642,1974,113.76,-1.0,UNK,74.02,Inactive,0,LEO,Russia,Russia/USSR,Unknown,Unknown,Unknown,1 07266U 74024B   24173.46358882  .00000003  00000+0  10479-3 0  9995,2 07266  74.0153 185.3320 0103887 210.0998 259.3412 12.65819051317871,12.65819051,0.0103887,LEO
28364,APSTAR-5 (TELSTAR 18),2004,1454.3,-1.0,-,5.11,Inactive,0,GSO,Sea Launch Platform,China,Unknown,Unknown,Unknown,1 28364U 04024A   24173.54910609 -.00000222  00000+0  00000+0 0  9999,2 28364   5.1157  78.2571 0006243 348.5831 207.0812  0.99016973 73117,0.99016973,0.0006243,GSO
28368,DEMETER,2004,97.38,-1.0,-,98.03,Inactive,0,LEO,Kazakhstan,France,Unknown,Unknown,Unknown,1 28368U 04025C   24173.89716368  .00002151  00000+0  30016-3 0  9994,2 28368  98.0330 136.1339 0001149  68.6752 291.4582 14.78720594 73274,14.78720594,0.0001149,LEO
7267,COSMOS 643,1974,114.14,-1.0,UNK,74.02,Inactive,0,LEO,Russia,Russia/USSR,Unknown,Unknown,Unknown,1 07267U 74024C   24173.59869942  .00000005  00000+0  11699-3 0  9991,2 07267  74.0191  22.7271 0082200  77.9750 343.0653 12.61572114310125,12.61572114,0.00822,LEO
28373,UNISAT-3,2004,99.5,-1.0,-,98.65,Inactive,0,LEO,Kazakhstan,Italy,Unknown,Unknown,Unknown,1 28373U 04025H   24173.52483147  .00000986  00000+0  27479-3 0  9999,2 28373  98.6496 152.3869 0067636  24.8158 335.6261 14.47308088 54005,14.47308088,0.0067636,LEO
28375,ECHO (AO-51),2004,99.8,-1.0,-,98.56,Inactive,0,LEO,Kazakhstan,USA,Unknown,Unknown,Unknown,1 28375U 04025K   24173.40149686  .00000330  00000+0  10840-3 0  9992,2 28375  98.5634 118.1894 0082178 136.2747 224.4990 14.42872268 50874,14.42872268,0.0082178,LEO
20185,NAVSTAR 15 (USA 42),1989,773.83,-1.0,-,54.51,Inactive,0,MEO,USA,USA,Unknown,Unknown,Unknown,1 20185U 89064A   24173.76119422  .00000007  00000+0  00000+0 0  9997,2 20185  54.5063 114.1726 0012600 308.0116 243.3737  1.86087648242691,1.86087648,0.00126,MEO
28382,DOUBLESTAR TC-2,2004,570.38,-1.0,-,87.55,Inactive,0,MEO,PRC,China,Unknown,Unknown,Unknown,1 28382U 04029A   24173.19810075  .00000508  00000+0  32635-3 0  9990,2 28382  87.5483 249.2491 7034341 285.3644  12.0946  2.52464886162203,2.52464886,0.7034341,MEO
20193,SIRIUS W (MARCOPOLO 1),1989,1451.82,-1.0,UNK,14.68,Inactive,0,GSO,USA,Sweden,Unknown,Unknown,Unknown,1 20193U 89067A   24173.57787999 -.00000186  00000+0  00000+0 0  9997,2 20193  14.6808   5.7325 0007206  64.0078 159.0614  0.99185250 39621,0.9918525,0.0007206,GSO
12003,RADUGA 7,1980,1436.98,-1.0,-,7.71,Inactive,0,GSO,Kazakhstan,Russia/USSR,Unknown,Unknown,Unknown,1 12003U 80081A   24173.53105007  .00000152  00000+0  00000+0 0  9997,2 12003   7.7024 296.2471 0009132 280.7654  85.8064  1.00210889116037,1.00210889,0.0009132,GSO
20196,COSMOS 2037,1989,116.08,-1.0,UNK,73.56,Inactive,0,LEO,Russia,Russia/USSR,Unknown,Unknown,Unknown,1 20196U 89068A   24173.51074450  .00000004  00000+0  16242-3 0  9993,2 20196  73.5637 195.6981 0024252 152.1184   2.2100 12.40524243575725,12.40524243,0.0024252,LEO
28393,AMAZONAS 1,2004,1462.53,-1.0,-,7.65,Inactive,0,GSO,Kazakhstan,Spain,Unknown,Unknown,Unknown,1 28393U 04031A   24173.54910609 -.00000210  00000+0  00000+0 0  9996,2 28393   7.6480  66.2834 0015124  65.3331 140.7596  0.98459564 72387,0.98459564,0.0015124,GSO
3818,COSMOS 272,1969,109.26,-1.0,UNK,73.99,Inactive,0,LEO,Russia,Russia/USSR,Unknown,Unknown,Unknown,1 03818U 69024A   24173.55604481 -.00000196  00000+0 -45232-3 0  9997,2 03818  73.9915 269.9091 0019733 243.7535 215.2193 13.17917469658251,13.17917469,0.0019733,LEO
20202,USA 43,1989,1460.3,-1.0,UNK,13.62,Inactive,0,GSO,USA,USA,Unknown,Unknown,Unknown,1 20202U 89069A   24173.51576852  .00000007  00000+0  00000+0 0  9999,2 20202  13.6222 341.4321 0015923 241.1189 101.4878  0.98609989 18644,0.98609989,0.0015923,GSO
36588,SERVIS 2,2010,109.42,-1.0,UNK,100.43,Inactive,0,LEO,Russia,Japan,Unknown,Unknown,Rokot,1 36588U 10023A   24173.49039012  .00000008  00000+0  13691-3 0  9991,2 36588 100.4295   0.7169 0017860 127.4487 249.5440 13.15984072675311,13.15984072,0.001786,LEO
20203,USA 44,1989,1452.78,-1.0,UNK,14.44,Inactive,0,GSO,USA,USA,Unknown,Unknown,Unknown,1 20203U 89069B   24173.58533477 -.00000227  00000+0  00000+0 0  9998,2 20203  14.4357   9.3856 0010448  25.6121 205.0360  0.99119892 17796,0.99119892,0.0010448,GSO
3825,OV1-19,1969,150.45,-1.0,UNK,104.77,Inactive,0,MEO,USA,USA,Unknown,Unknown,Unknown,1 03825U 69025C   24173.44869441  .00000831  00000+0  40638-3 0  9992,2 03825 104.7655  90.8869 2685855  65.2930 320.3031  9.57156071915741,9.57156071,0.2685855,MEO
